1 9356U          19329.25486111  .00000000  00000-0  00000-0 0 00000
2 9356 097.6560 166.6530 0019500 225.9670 167.5440 15.29959500000000
1 9356U          19329.62083333  .00000000  00000-0  00000-0 0 00000
2 9356 097.6580 167.0330 0003590 249.2530 358.9900 15.33502100000000
1 9356U          19329.91319444  .00000000  00000-0  00000-0 0 00000
2 9356 097.6580 167.3300 0031040 229.3330 188.4330 15.32567100000000
1 9356U          19330.17986111  .00000000  00000-0  00000-0 0 00000
2 9356 097.6600 167.6080 0036100 248.6350 197.1270 15.34313200000000
1 9356U          19330.55416667  .00000000  00000-0  00000-0 0 00000
2 9356 097.6470 167.9980 0020260 244.7030 101.6670 15.28401600000000
1 9356U          19330.82361111  .00000000  00000-0  00000-0 0 00000
2 9356 097.6530 168.2670 0019040 220.1720 169.6240 15.29630100000000
1 9356U          19331.23819444  .00000000  00000-0  00000-0 0 00000
2 9356 097.6510 168.7010 0015990 226.9300 285.1390 15.29491500000000
1 9356U          19331.62916667  .00000000  00000-0  00000-0 0 00000
2 9356 097.6490 169.1060 0015150 237.3540 267.1100 15.30249900000000
1 9356U          19331.86250000  .00000000  00000-0  00000-0 0 00000
2 9356 097.6480 169.3410 0019730 239.7020 109.3610 15.28267000000000
1 9356U          19332.21041667  .00000000  00000-0  00000-0 0 00000
2 9356 097.6560 169.6980 0031070 254.4710 209.9510 15.34026100000000
1 9356U          19332.57777778  .00000000  00000-0  00000-0 0 00000
2 9356 097.6450 170.0810 0024860 220.5710 106.2570 15.29950700000000
1 9356U          19332.87569444  .00000000  00000-0  00000-0 0 00000
2 9356 097.6460 170.3830 0021540 210.4650 316.5120 15.28412600000000
